CCSDS_OMM_VERS = 2.0
CREATION_DATE  = 
ORIGINATOR     = 

OBJECT_NAME    = SL-16 R/B
OBJECT_ID      = 1998-043G
CENTER_NAME    = EARTH
REF_FRAME      = TEME
TIME_SYSTEM    = UTC
MEAN_ELEMENT_THEORY = SGP/SGP4

EPOCH          = 2026-01-04T14:26:39.673248
MEAN_MOTION    = 14.26032125
ECCENTRICITY   = .0009488
INCLINATION    = 98.8156
RA_OF_ASC_NODE = 317.5516
ARG_OF_PERICENTER = 194.6809
MEAN_ANOMALY   = 165.4097

EPHEMERIS_TYPE = 0
CLASSIFICATION_TYPE = U
NORAD_CAT_ID   = 25400
ELEMENT_SET_NO = 999
REV_AT_EPOCH   = 42985
BSTAR          = .69085144E-4
MEAN_MOTION_DOT = .12E-5
MEAN_MOTION_DDOT = 0

CCSDS_OMM_VERS = 2.0
CREATION_DATE  = 
ORIGINATOR     = 

OBJECT_NAME    = SL-16 R/B
OBJECT_ID      = 1998-045B
CENTER_NAME    = EARTH
REF_FRAME      = TEME
TIME_SYSTEM    = UTC
MEAN_ELEMENT_THEORY = SGP/SGP4

EPOCH          = 2026-01-04T13:54:20.960064
MEAN_MOTION    = 14.16181645
ECCENTRICITY   = .00054949
INCLINATION    = 71.0127
RA_OF_ASC_NODE = 316.3950
ARG_OF_PERICENTER = 137.8146
MEAN_ANOMALY   = 222.3401

EPHEMERIS_TYPE = 0
CLASSIFICATION_TYPE = U
NORAD_CAT_ID   = 25407
ELEMENT_SET_NO = 999
REV_AT_EPOCH   = 41802
BSTAR          = -.35007515E-4
MEAN_MOTION_DOT = -.117E-5
MEAN_MOTION_DDOT = 0

CCSDS_OMM_VERS = 2.0
CREATION_DATE  = 
ORIGINATOR     = 

OBJECT_NAME    = ISS (ZARYA)
OBJECT_ID      = 1998-067A
CENTER_NAME    = EARTH
REF_FRAME      = TEME
TIME_SYSTEM    = UTC
MEAN_ELEMENT_THEORY = SGP/SGP4

EPOCH          = 2026-01-04T12:00:38.654496
MEAN_MOTION    = 15.49089728
ECCENTRICITY   = .00075696
INCLINATION    = 51.6325
RA_OF_ASC_NODE = 29.7776
ARG_OF_PERICENTER = 339.7319
MEAN_ANOMALY   = 20.3368

EPHEMERIS_TYPE = 0
CLASSIFICATION_TYPE = U
NORAD_CAT_ID   = 25544
ELEMENT_SET_NO = 999
REV_AT_EPOCH   = 54638
BSTAR          = .19539912E-3
MEAN_MOTION_DOT = .10369E-3
MEAN_MOTION_DDOT = 0

CCSDS_OMM_VERS = 2.0
CREATION_DATE  = 
ORIGINATOR     = 

OBJECT_NAME    = CZ-4B R/B
OBJECT_ID      = 1999-025C
CENTER_NAME    = EARTH
REF_FRAME      = TEME
TIME_SYSTEM    = UTC
MEAN_ELEMENT_THEORY = SGP/SGP4

EPOCH          = 2026-01-04T14:49:25.043808
MEAN_MOTION    = 14.18250201
ECCENTRICITY   = .00373469
INCLINATION    = 98.6735
RA_OF_ASC_NODE = 50.3823
ARG_OF_PERICENTER = 167.7759
MEAN_ANOMALY   = 306.8350

EPHEMERIS_TYPE = 0
CLASSIFICATION_TYPE = U
NORAD_CAT_ID   = 25732
ELEMENT_SET_NO = 999
REV_AT_EPOCH   = 37908
BSTAR          = .86820964E-4
MEAN_MOTION_DOT = .137E-5
MEAN_MOTION_DDOT = 0

CCSDS_OMM_VERS = 2.0
CREATION_DATE  = 
ORIGINATOR     = 

OBJECT_NAME    = OKEAN-O
OBJECT_ID      = 1999-039A
CENTER_NAME    = EARTH
REF_FRAME      = TEME
TIME_SYSTEM    = UTC
MEAN_ELEMENT_THEORY = SGP/SGP4

EPOCH          = 2026-01-04T15:19:25.263840
MEAN_MOTION    = 14.80209169
ECCENTRICITY   = .00013783
INCLINATION    = 97.9568
RA_OF_ASC_NODE = 65.1388
ARG_OF_PERICENTER = 113.1113
MEAN_ANOMALY   = 247.0244

EPHEMERIS_TYPE = 0
CLASSIFICATION_TYPE = U
NORAD_CAT_ID   = 25860
ELEMENT_SET_NO = 999
REV_AT_EPOCH   = 42491
BSTAR          = .16739359E-3
MEAN_MOTION_DOT = .122E-4
MEAN_MOTION_DDOT = 0

CCSDS_OMM_VERS = 2.0
CREATION_DATE  = 
ORIGINATOR     = 

OBJECT_NAME    = SL-16 R/B
OBJECT_ID      = 1999-039B
CENTER_NAME    = EARTH
REF_FRAME      = TEME
TIME_SYSTEM    = UTC
MEAN_ELEMENT_THEORY = SGP/SGP4

EPOCH          = 2026-01-04T14:40:44.294592
MEAN_MOTION    = 14.81627046
ECCENTRICITY   = .00161039
INCLINATION    = 98.0092
RA_OF_ASC_NODE = 63.7607
ARG_OF_PERICENTER = 104.3104
MEAN_ANOMALY   = 255.9898

EPHEMERIS_TYPE = 0
CLASSIFICATION_TYPE = U
NORAD_CAT_ID   = 25861
ELEMENT_SET_NO = 999
REV_AT_EPOCH   = 42737
BSTAR          = .13969244E-3
MEAN_MOTION_DOT = .1046E-4
MEAN_MOTION_DDOT = 0

CCSDS_OMM_VERS = 2.0
CREATION_DATE  = 
ORIGINATOR     = 

OBJECT_NAME    = DELTA 2 R/B
OBJECT_ID      = 1999-041E
CENTER_NAME    = EARTH
REF_FRAME      = TEME
TIME_SYSTEM    = UTC
MEAN_ELEMENT_THEORY = SGP/SGP4

EPOCH          = 2026-01-04T05:31:24.776832
MEAN_MOTION    = 14.11488824
ECCENTRICITY   = .0504103
INCLINATION    = 51.7589
RA_OF_ASC_NODE = 198.6620
ARG_OF_PERICENTER = 158.0598
MEAN_ANOMALY   = 204.2773

EPHEMERIS_TYPE = 0
CLASSIFICATION_TYPE = U
NORAD_CAT_ID   = 25876
ELEMENT_SET_NO = 999
REV_AT_EPOCH   = 35392
BSTAR          = .43111E-3
MEAN_MOTION_DOT = .2444E-4
MEAN_MOTION_DDOT = 0

CCSDS_OMM_VERS = 2.0
CREATION_DATE  = 
ORIGINATOR     = 

OBJECT_NAME    = HELIOS 1B
OBJECT_ID      = 1999-064A
CENTER_NAME    = EARTH
REF_FRAME      = TEME
TIME_SYSTEM    = UTC
MEAN_ELEMENT_THEORY = SGP/SGP4

EPOCH          = 2026-01-04T14:38:10.428288
MEAN_MOTION    = 14.87398533
ECCENTRICITY   = .00004193
INCLINATION    = 98.1752
RA_OF_ASC_NODE = 264.9546
ARG_OF_PERICENTER = 55.4103
MEAN_ANOMALY   = 304.7151

EPHEMERIS_TYPE = 0
CLASSIFICATION_TYPE = U
NORAD_CAT_ID   = 25977
ELEMENT_SET_NO = 999
REV_AT_EPOCH   = 67573
BSTAR          = .34883846E-3
MEAN_MOTION_DOT = .3097E-4
MEAN_MOTION_DDOT = 0

CCSDS_OMM_VERS = 2.0
CREATION_DATE  = 
ORIGINATOR     = 

OBJECT_NAME    = TERRA
OBJECT_ID      = 1999-068A
CENTER_NAME    = EARTH
REF_FRAME      = TEME
TIME_SYSTEM    = UTC
MEAN_ELEMENT_THEORY = SGP/SGP4

EPOCH          = 2026-01-04T14:54:15.092928
MEAN_MOTION    = 14.60933339
ECCENTRICITY   = .00030059
INCLINATION    = 97.9715
RA_OF_ASC_NODE = 60.4620
ARG_OF_PERICENTER = 47.8948
MEAN_ANOMALY   = 70.2089

EPHEMERIS_TYPE = 0
CLASSIFICATION_TYPE = U
NORAD_CAT_ID   = 25994
ELEMENT_SET_NO = 999
REV_AT_EPOCH   = 38572
BSTAR          = .17685905E-3
MEAN_MOTION_DOT = .822E-5
MEAN_MOTION_DDOT = 0

CCSDS_OMM_VERS = 2.0
CREATION_DATE  = 
ORIGINATOR     = 

OBJECT_NAME    = SL-16 R/B
OBJECT_ID      = 2000-006B
CENTER_NAME    = EARTH
REF_FRAME      = TEME
TIME_SYSTEM    = UTC
MEAN_ELEMENT_THEORY = SGP/SGP4

EPOCH          = 2026-01-04T15:34:16.671648
MEAN_MOTION    = 14.15815338
ECCENTRICITY   = .00189028
INCLINATION    = 71.0017
RA_OF_ASC_NODE = 232.4899
ARG_OF_PERICENTER = 277.8958
MEAN_ANOMALY   = 82.0020

EPHEMERIS_TYPE = 0
CLASSIFICATION_TYPE = U
NORAD_CAT_ID   = 26070
ELEMENT_SET_NO = 999
REV_AT_EPOCH   = 33949
BSTAR          = .10485292E-3
MEAN_MOTION_DOT = .159E-5
MEAN_MOTION_DDOT = 0

CCSDS_OMM_VERS = 2.0
CREATION_DATE  = 
ORIGINATOR     = 

OBJECT_NAME    = TITAN 4B R/B
OBJECT_ID      = 2000-047B
CENTER_NAME    = EARTH
REF_FRAME      = TEME
TIME_SYSTEM    = UTC
MEAN_ELEMENT_THEORY = SGP/SGP4

EPOCH          = 2026-01-04T14:42:06.513696
MEAN_MOTION    = 15.08977362
ECCENTRICITY   = .0037397
INCLINATION    = 67.9878
RA_OF_ASC_NODE = 220.6092
ARG_OF_PERICENTER = 116.5692
MEAN_ANOMALY   = 243.9298

EPHEMERIS_TYPE = 0
CLASSIFICATION_TYPE = U
NORAD_CAT_ID   = 26474
ELEMENT_SET_NO = 999
REV_AT_EPOCH   = 38324
BSTAR          = .28330311E-3
MEAN_MOTION_DOT = .4426E-4
MEAN_MOTION_DDOT = 0

CCSDS_OMM_VERS = 2.0
CREATION_DATE  = 
ORIGINATOR     = 

OBJECT_NAME    = ENVISAT
OBJECT_ID      = 2002-009A
CENTER_NAME    = EARTH
REF_FRAME      = TEME
TIME_SYSTEM    = UTC
MEAN_ELEMENT_THEORY = SGP/SGP4

EPOCH          = 2025-12-31T22:48:16.847136
MEAN_MOTION    = 14.39007536
ECCENTRICITY   = .0001107
INCLINATION    = 98.3626
RA_OF_ASC_NODE = 316.2065
ARG_OF_PERICENTER = 88.1807
MEAN_ANOMALY   = 295.1197

EPHEMERIS_TYPE = 0
CLASSIFICATION_TYPE = U
NORAD_CAT_ID   = 27386
ELEMENT_SET_NO = 999
REV_AT_EPOCH   = 24943
BSTAR          = .99422E-4
MEAN_MOTION_DOT = .264E-5
MEAN_MOTION_DDOT = 0

