SL-16 R/B               
1 25400U 98043G   26004.60184807  .00000120  00000+0  69085-4 0  9995
2 25400  98.8156 317.5516 0009488 194.6809 165.4097 14.26032125429850
SL-16 R/B               
1 25407U 98045B   26004.57940926 -.00000117  00000+0 -35008-4 0  9998
2 25407  71.0127 316.3950 0005494 137.8146 222.3401 14.16181645418023
ISS (ZARYA)             
1 25544U 98067A   26004.50044739  .00010369  00000+0  19540-3 0  9994
2 25544  51.6325  29.7776 0007569 339.7319  20.3368 15.49089728546385
CZ-4B R/B               
1 25732U 99025C   26004.61765097  .00000137  00000+0  86821-4 0  9996
2 25732  98.6735  50.3823 0037346 167.7759 306.8350 14.18250201379081
OKEAN-O                 
1 25860U 99039A   26004.63848685  .00001220  00000+0  16739-3 0  9994
2 25860  97.9568  65.1388 0001378 113.1113 247.0244 14.80209169424911
SL-16 R/B               
1 25861U 99039B   26004.61162378  .00001046  00000+0  13969-3 0  9999
2 25861  98.0092  63.7607 0016103 104.3104 255.9898 14.81627046427373
DELTA 2 R/B             
1 25876U 99041E   26004.23014788  .00002444  00000+0  43111-3 0  9992
2 25876  51.7589 198.6620 0504103 158.0598 204.2773 14.11488824353924
HELIOS 1B               
1 25977U 99064A   26004.60984292  .00003097  00000+0  34884-3 0  9998
2 25977  98.1752 264.9546 0000419  55.4103 304.7151 14.87398533675732
TERRA                   
1 25994U 99068A   26004.62100802  .00000822  00000+0  17686-3 0  9994
2 25994  97.9715  60.4620 0003005  47.8948  70.2089 14.60933339385727
SL-16 R/B               
1 26070U 00006B   26004.64880407  .00000159  00000+0  10485-3 0  9995
2 26070  71.0017 232.4899 0018902 277.8958  82.0020 14.15815338339495
TITAN 4B R/B            
1 26474U 00047B   26004.61257539  .00004426  00000+0  28330-3 0  9998
2 26474  67.9878 220.6092 0037397 116.5692 243.9298 15.08977362383245
ENVISAT                 
1 27386U 02009A   25365.95019499  .00000264  00000+0  99422-4 0  9995
2 27386  98.3626 316.2065 0001107  88.1807 295.1197 14.39007536249430
